start=new Date('2022-06-04T00:00:00.000Z').valueOf();
sats=[{"NORAD_CAT_ID":"44757","REF_FRAME":"TEME","RCS_SIZE":"LARGE","LAUNCH_DATE":"2019-11-11","PERIAPSIS":"545.898","OBJECT_ID":"2019-074AW","RA_OF_ASC_NODE":"258.9273","MEAN_MOTION_DDOT":"0.0000000000000","TLE_LINE2":"2 44757  53.0548 258.9273 0001936  57.9583 302.1594 15.06391805141239","SEMIMAJOR_AXIS":"6925.374","MEAN_MOTION":"15.06391805","MEAN_MOTION_DOT":"-0.00001313","MEAN_ELEMENT_THEORY":"SGP4","FILE":"3479630","TLE_LINE1":"1 44757U 19074AW  22154.75929281 -.00001313  00000-0 -69244-4 0  9994","REV_AT_EPOCH":"14123","ELEMENT_SET_NO":"999","PERIOD":"95.593","MEAN_ANOMALY":"302.1594","INCLINATION":"53.0548","COUNTRY_CODE":"US","ARG_OF_PERICENTER":"57.9583","EPOCH":"2022-06-03T18:13:22.898784","TIME_SYSTEM":"UTC","OBJECT_NAME":"STARLINK-1052","ECCENTRICITY":"0.00019360","EPHEMERIS_TYPE":"0","BSTAR":"-0.00006924400000","DECAY_DATE":null,"SITE":"AFETR","APOAPSIS":"548.579","CENTER_NAME":"EARTH","CLASSIFICATION_TYPE":"U","OBJECT_TYPE":"PAYLOAD","GP_ID":"205295796"},{"SEMIMAJOR_AXIS":"6925.322","MEAN_MOTION_DOT":"-0.00001035","MEAN_MOTION":"15.06408509","RA_OF_ASC_NODE":"279.7876","MEAN_MOTION_DDOT":"0.0000000000000","TLE_LINE2":"2 44758  53.0551 279.7876 0001433  73.1642 286.9504 15.06408509140938","PERIAPSIS":"546.195","OBJECT_ID":"2019-074AX","RCS_SIZE":"LARGE","LAUNCH_DATE":"2019-11-11","REF_FRAME":"TEME","NORAD_CAT_ID":"44758","CENTER_NAME":"EARTH","CLASSIFICATION_TYPE":"U","OBJECT_TYPE":"PAYLOAD","GP_ID":"205295547","OBJECT_NAME":"STARLINK-1053","ECCENTRICITY":"0.00014330","EPHEMERIS_TYPE":"0","APOAPSIS":"548.180","DECAY_DATE":null,"SITE":"AFETR","BSTAR":"-0.00005058200000","EPOCH":"2022-06-03T13:38:39.816096","ARG_OF_PERICENTER":"73.1642","TIME_SYSTEM":"UTC","MEAN_ANOMALY":"286.9504","INCLINATION":"53.0551","COUNTRY_CODE":"US","ELEMENT_SET_NO":"999","PERIOD":"95.592","REV_AT_EPOCH":"14093","MEAN_ELEMENT_THEORY":"SGP4","TLE_LINE1":"1 44758U 19074AX  22154.56851639 -.00001035  00000-0 -50582-4 0  9991","FILE":"3479630"},{"SEMIMAJOR_AXIS":"6925.368","MEAN_MOTION":"15.06393523","MEAN_MOTION_DOT":"-0.00000782","TLE_LINE2":"2 44759  53.0543 278.9265 0001476  85.4990 274.6168 15.06393523138602","MEAN_MOTION_DDOT":"0.0000000000000","RA_OF_ASC_NODE":"278.9265","OBJECT_ID":"2019-074AY","PERIAPSIS":"546.211","LAUNCH_DATE":"2019-11-11","RCS_SIZE":"LARGE","REF_FRAME":"TEME","NORAD_CAT_ID":"44759","CLASSIFICATION_TYPE":"U","OBJECT_TYPE":"PAYLOAD","GP_ID":"205294795","CENTER_NAME":"EARTH","SITE":"AFETR","DECAY_DATE":null,"BSTAR":"-0.00003359100000","APOAPSIS":"548.256","OBJECT_NAME":"STARLINK-1054","ECCENTRICITY":"0.00014760","EPHEMERIS_TYPE":"0","TIME_SYSTEM":"UTC","ARG_OF_PERICENTER":"85.4990","EPOCH":"2022-06-03T18:10:43.613472","COUNTRY_CODE":"US","MEAN_ANOMALY":"274.6168","INCLINATION":"53.0543","ELEMENT_SET_NO":"999","PERIOD":"95.593","REV_AT_EPOCH":"13860","TLE_LINE1":"1 44759U 19074AY  22154.75744923 -.00000782  00000-0 -33591-4 0  9999","FILE":"3479630","MEAN_ELEMENT_THEORY":"SGP4"},{"RA_OF_ASC_NODE":"278.9998","TLE_LINE2":"2 44760  53.0561 278.9998 0001848  50.2090 309.9061 15.06403634140962","MEAN_MOTION_DDOT":"0.0000000000000","PERIAPSIS":"545.923","OBJECT_ID":"2019-074AZ","SEMIMAJOR_AXIS":"6925.337","MEAN_MOTION_DOT":"-0.00000199","MEAN_MOTION":"15.06403634","NORAD_CAT_ID":"44760","RCS_SIZE":"LARGE","LAUNCH_DATE":"2019-11-11","REF_FRAME":"TEME","ECCENTRICITY":"0.00018480","EPHEMERIS_TYPE":"0","OBJECT_NAME":"STARLINK-1055","DECAY_DATE":null,"SITE":"AFETR","APOAPSIS":"548.482","BSTAR":"0.00000554530000","EPOCH":"2022-06-03T17:49:29.740512","ARG_OF_PERICENTER":"50.2090","TIME_SYSTEM":"UTC","CENTER_NAME":"EARTH","OBJECT_TYPE":"PAYLOAD","GP_ID":"205295045","CLASSIFICATION_TYPE":"U","REV_AT_EPOCH":"14096","MEAN_ELEMENT_THEORY":"SGP4","FILE":"3479630","TLE_LINE1":"1 44760U 19074AZ  22154.74270533 -.00000199  00000-0  55453-5 0  9994","INCLINATION":"53.0561","MEAN_ANOMALY":"309.9061","COUNTRY_CODE":"US","PERIOD":"95.592","ELEMENT_SET_NO":"999"},{"OBJECT_TYPE":"PAYLOAD","GP_ID":"205295297","CLASSIFICATION_TYPE":"U","CENTER_NAME":"EARTH","TIME_SYSTEM":"UTC","ARG_OF_PERICENTER":"59.0984","EPOCH":"2022-06-03T14:54:20.393568","DECAY_DATE":null,"BSTAR":"-0.00008946900000","SITE":"AFETR","APOAPSIS":"548.231","ECCENTRICITY":"0.00014580","EPHEMERIS_TYPE":"0","OBJECT_NAME":"STARLINK-1056","PERIOD":"95.592","ELEMENT_SET_NO":"999","COUNTRY_CODE":"US","INCLINATION":"53.0556","MEAN_ANOMALY":"301.0148","FILE":"3479630","TLE_LINE1":"1 44761U 19074BA  22154.62106937 -.00001614  00000-0 -89469-4 0  9995","MEAN_ELEMENT_THEORY":"SGP4","REV_AT_EPOCH":"14094","SEMIMAJOR_AXIS":"6925.357","MEAN_MOTION_DOT":"-0.00001614","MEAN_MOTION":"15.06397338","OBJECT_ID":"2019-074BA","PERIAPSIS":"546.212","MEAN_MOTION_DDOT":"0.0000000000000","TLE_LINE2":"2 44761  53.0556 279.5431 0001458  59.0984 301.0148 15.06397338140942","RA_OF_ASC_NODE":"279.5431","REF_FRAME":"TEME","LAUNCH_DATE":"2019-11-11","RCS_SIZE":"LARGE","NORAD_CAT_ID":"44761"},{"DECAY_DATE":null,"APOAPSIS":"548.380","SITE":"AFETR","BSTAR":"0.00004562800000","ECCENTRICITY":"0.00017100","EPHEMERIS_TYPE":"0","OBJECT_NAME":"STARLINK-1057","TIME_SYSTEM":"UTC","ARG_OF_PERICENTER":"53.2423","EPOCH":"2022-06-03T18:08:03.808896","GP_ID":"205296047","OBJECT_TYPE":"PAYLOAD","CLASSIFICATION_TYPE":"U","CENTER_NAME":"EARTH","REV_AT_EPOCH":"14123","FILE":"3479630","TLE_LINE1":"1 44762U 19074BB  22154.75559964  .00000398  00000-0  45628-4 0  9997","MEAN_ELEMENT_THEORY":"SGP4","COUNTRY_CODE":"US","INCLINATION":"53.0567","MEAN_ANOMALY":"306.8723","PERIOD":"95.592","ELEMENT_SET_NO":"999","MEAN_MOTION_DDOT":"0.0000000000000","TLE_LINE2":"2 44762  53.0567 258.9360 0001710  53.2423 306.8723 15.06405737141230","RA_OF_ASC_NODE":"258.9360","OBJECT_ID":"2019-074BB","PERIAPSIS":"546.012","SEMIMAJOR_AXIS":"6925.331","MEAN_MOTION_DOT":"0.00000398","MEAN_MOTION":"15.06405737","NORAD_CAT_ID":"44762","LAUNCH_DATE":"2019-11-11","RCS_SIZE":"LARGE","REF_FRAME":"TEME"},{"CENTER_NAME":"EARTH","GP_ID":"205294296","OBJECT_TYPE":"PAYLOAD","CLASSIFICATION_TYPE":"U","ARG_OF_PERICENTER":"57.3728","EPOCH":"2022-06-03T17:01:43.827456","TIME_SYSTEM":"UTC","ECCENTRICITY":"0.00014140","EPHEMERIS_TYPE":"0","OBJECT_NAME":"STARLINK-1058","SITE":"AFETR","DECAY_DATE":null,"BSTAR":"-0.00020944000000","APOAPSIS":"548.192","PERIOD":"95.592","ELEMENT_SET_NO":"999","INCLINATION":"53.0546","MEAN_ANOMALY":"302.7397","COUNTRY_CODE":"US","MEAN_ELEMENT_THEORY":"SGP4","FILE":"3479630","TLE_LINE1":"1 44763U 19074BC  22154.70953504 -.00003400  00000-0 -20944-3 0  9993","REV_AT_EPOCH":"14095","SEMIMAJOR_AXIS":"6925.348","MEAN_MOTION_DOT":"-0.00003400","MEAN_MOTION":"15.06400124","PERIAPSIS":"546.234","OBJECT_ID":"2019-074BC","RA_OF_ASC_NODE":"279.1565","MEAN_MOTION_DDOT":"0.0000000000000","TLE_LINE2":"2 44763  53.0546 279.1565 0001414  57.3728 302.7397 15.06400124140959","REF_FRAME":"TEME","RCS_SIZE":"LARGE","LAUNCH_DATE":"2019-11-11","NORAD_CAT_ID":"44763"},{"COUNTRY_CODE":"US","INCLINATION":"53.0585","MEAN_ANOMALY":"295.9890","PERIOD":"95.593","ELEMENT_SET_NO":"999","REV_AT_EPOCH":"14120","TLE_LINE1":"1 44764U 19074BD  22154.55288438  .00003788  00000-0  27318-3 0  9993","FILE":"3479192","MEAN_ELEMENT_THEORY":"SGP4","OBJECT_TYPE":"PAYLOAD","GP_ID":"205261986","CLASSIFICATION_TYPE":"U","CENTER_NAME":"EARTH","SITE":"AFETR","DECAY_DATE":null,"APOAPSIS":"548.689","BSTAR":"0.00027318000000","EPHEMERIS_TYPE":"0","ECCENTRICITY":"0.00020520","OBJECT_NAME":"STARLINK-1059","TIME_SYSTEM":"UTC","ARG_OF_PERICENTER":"64.1310","EPOCH":"2022-06-03T13:16:09.210432","LAUNCH_DATE":"2019-11-11","RCS_SIZE":"LARGE","REF_FRAME":"TEME","NORAD_CAT_ID":"44764","MEAN_MOTION":"15.06382323","SEMIMAJOR_AXIS":"6925.403","MEAN_MOTION_DOT":"0.00003788","TLE_LINE2":"2 44764  53.0585 259.8593 0002052  64.1310 295.9890 15.06382323141201","MEAN_MOTION_DDOT":"0.0000000000000","RA_OF_ASC_NODE":"259.8593","OBJECT_ID":"2019-074BD","PERIAPSIS":"545.847"},{"NORAD_CAT_ID":"44765","LAUNCH_DATE":"2019-11-11","RCS_SIZE":"LARGE","REF_FRAME":"TEME","MEAN_MOTION_DDOT":"0.0000000000000","TLE_LINE2":"2 44765  53.0558 259.1615 0001497  75.1584 284.9570 15.06392642141227","RA_OF_ASC_NODE":"259.1615","OBJECT_ID":"2019-074BE","PERIAPSIS":"546.199","SEMIMAJOR_AXIS":"6925.371","MEAN_MOTION":"15.06392642","MEAN_MOTION_DOT":"-0.00001286","REV_AT_EPOCH":"14122","TLE_LINE1":"1 44765U 19074BE  22154.70400633 -.00001286  00000-0 -67448-4 0  9996","FILE":"3479630","MEAN_ELEMENT_THEORY":"SGP4","COUNTRY_CODE":"US","INCLINATION":"53.0558","MEAN_ANOMALY":"284.9570","PERIOD":"95.593","ELEMENT_SET_NO":"999","DECAY_DATE":null,"SITE":"AFETR","APOAPSIS":"548.273","BSTAR":"-0.00006744800000","ECCENTRICITY":"0.00014970","EPHEMERIS_TYPE":"0","OBJECT_NAME":"STARLINK-1060","TIME_SYSTEM":"UTC","ARG_OF_PERICENTER":"75.1584","EPOCH":"2022-06-03T16:53:46.146912","GP_ID":"205295797","OBJECT_TYPE":"PAYLOAD","CLASSIFICATION_TYPE":"U","CENTER_NAME":"EARTH"},{"PERIAPSIS":"546.368","OBJECT_ID":"2019-074BF","RA_OF_ASC_NODE":"279.7803","TLE_LINE2":"2 44766  53.0571 279.7803 0001238  83.9368 276.1762 15.06396160140932","MEAN_MOTION_DDOT":"0.0000000000000","MEAN_MOTION_DOT":"-0.00000353","SEMIMAJOR_AXIS":"6925.360","MEAN_MOTION":"15.06396160","NORAD_CAT_ID":"44766","REF_FRAME":"TEME","RCS_SIZE":"LARGE","LAUNCH_DATE":"2019-11-11","ARG_OF_PERICENTER":"83.9368","EPOCH":"2022-06-03T13:40:01.628256","TIME_SYSTEM":"UTC","ECCENTRICITY":"0.00012380","EPHEMERIS_TYPE":"0","OBJECT_NAME":"STARLINK-1061","DECAY_DATE":null,"SITE":"AFETR","APOAPSIS":"548.083","BSTAR":"-0.00000478340000","CENTER_NAME":"EARTH","OBJECT_TYPE":"PAYLOAD","GP_ID":"205295548","CLASSIFICATION_TYPE":"U","MEAN_ELEMENT_THEORY":"SGP4","TLE_LINE1":"1 44766U 19074BF  22154.56946329 -.00000353  00000-0 -47834-5 0  9990","FILE":"3479630","REV_AT_EPOCH":"14093","PERIOD":"95.592","ELEMENT_SET_NO":"999","INCLINATION":"53.0571","MEAN_ANOMALY":"276.1762","COUNTRY_CODE":"US"}];
